STARLINK-6114           
1 56116U 23046Z   26200.16240957  .00000823  00000+0  39423-4 0  9995
2 56116  43.0035 139.4851 0001682 269.5869  90.4790 15.27575981182133
STARLINK-6107           
1 56117U 23046AA  26200.14877468 -.00000424  00000+0 -58639-5 0  9997
2 56117  43.0044 124.7110 0002043 267.8355  92.2263 15.27582065182307
STARLINK-6091           
1 56119U 23046AC  26200.16292197 -.00000129  00000+0  48399-5 0  9994
2 56119  43.0024 124.8076 0000989 262.3259  97.7481 15.27572299182309
STARLINK-6079           
1 56120U 23046AD  26200.15906608  .00000027  00000+0  10505-4 0  9997
2 56120  43.0021 124.7811 0000850 253.8321 106.2437 15.27575913182309
STARLINK-6092           
1 56121U 23046AE  26200.22060006 -.00000315  00000+0 -19523-5 0  9991
2 56121  43.0018 124.3807 0000274 225.7280 134.3550 15.27570906182315
STARLINK-6094           
1 56122U 23046AF  26200.15005613  .00000641  00000+0  32821-4 0  9992
2 56122  43.0039 135.9778 0001657 268.3353  91.7309 15.27586261182177
STARLINK-6115           
1 56123U 23046AH  26200.11166699  .00000209  00000+0  17133-4 0  9990
2 56123  43.0045 125.2842 0001293 266.4873  93.5831 15.27573713182292
STARLINK-6126           
1 56124U 23046AJ  26200.15135625  .00000263  00000+0  19087-4 0  9990
2 56124  43.0019 124.7269 0001016 249.3974 110.6768 15.27572745182302
STARLINK-6119           
1 56125U 23046AK  26200.17320236 -.00000282  00000+0 -71907-6 0  9991
2 56125  43.0024 124.8839 0001367 252.8411 107.2291 15.27572599182307
STARLINK-6124           
1 56126U 23046AL  26200.13850830  .00000107  00000+0  13436-4 0  9991
2 56126  43.0027 124.6298 0001817 235.2695 124.7985 15.27575658182300
STARLINK-6104           
1 56127U 23046AM  26199.80337082  .00000491  00000+0  27389-4 0  9990
2 56127  43.0038 129.8228 0001672 280.3404  79.7259 15.27573632182214
STARLINK-6122           
1 56128U 23046AN  26200.16935109  .00000438  00000+0  25442-4 0  9996
2 56128  43.0024 124.8553 0000807 280.3938  79.6823 15.27581944182308
STARLINK-6121           
1 56129U 23046AP  26199.92941042 -.00000491  00000+0 -83263-5 0  9998
2 56129  43.0025  74.5860 0001296 263.2462  96.8242 15.27575136182860
STARLINK-6117           
1 56130U 23046AQ  26200.20132294  .00000375  00000+0  23168-4 0  9991
2 56130  43.0033 124.2391 0001283 267.6595  92.4110 15.27577340182319
STARLINK-6120           
1 56131U 23046AR  26199.81671545 -.00000224  00000+0  13665-5 0  9999
2 56131  43.0011 126.5031 0000885 253.8583 106.2171 15.27581966182256
STARLINK-6071           
1 56132U 23046AS  26200.17947665  .00000119  00000+0  13860-4 0  9999
2 56132  43.0044 124.0781 0001565 272.2380  87.8292 15.27574926182317
STARLINK-5566           
1 56133U 23046AT  26199.79232075 -.00000686  00000+0 -15419-4 0  9990
2 56133  43.0039 126.3285 0001429 282.2084  77.8607 15.27567103182258
STARLINK-5564           
1 56134U 23046AU  26200.18332863  .00000365  00000+0  22809-4 0  9996
2 56134  43.0043 124.1028 0001455 273.1705  86.8980 15.27580385182300
STARLINK-5489           
1 56136U 23046AW  26200.18975309  .00000949  00000+0  44001-4 0  9992
2 56136  43.0042 124.1509 0001705 275.5333  84.5324 15.27579373182319
STARLINK-5090           
1 56137U 23046AX  26199.93720253  .00000962  00000+0  44482-4 0  9997
2 56137  43.0038 125.6897 0001312 270.7340  89.3361 15.27579163182276
STARLINK-4774           
1 56138U 23046AY  26200.21931163 -.00000143  00000+0  43107-5 0  9992
2 56138  43.0028 124.3659 0000948 256.6445 103.4302 15.27575543182317
STARLINK-5375           
1 56140U 23046BA  26200.16805209  .00000273  00000+0  19454-4 0  9990
2 56140  43.0017 124.8415 0001006 307.0827  52.9933 15.27582010182308
STARLINK-5377           
1 56141U 23046BB  26200.13722132  .00000331  00000+0  21549-4 0  9994
2 56141  43.0026 124.6111 0001187 268.1814  91.8902 15.27577146182305
STARLINK-5376           
1 56142U 23046BC  26199.19996697  .00000392  00000+0  23789-4 0  9992
2 56142  43.0033 129.6240 0001354 277.9042  82.1656 15.27576291182162
STARLINK-5016           
1 56143U 23046BD  26200.22049801  .00014093  00000+0  68359-3 0  9990
2 56143  42.9976 136.3153 0003268 168.3533 191.7391 15.18348846182176
STARLINK-5374           
1 56144U 23046BE  26199.21409146 -.00024359  00000+0 -87514-3 0  9991
2 56144  43.0028 129.7205 0002412 263.4423  96.6154 15.27703858182163
STARLINK-5111           
1 56146U 23046BG  26200.14107483 -.00000709  00000+0 -16245-4 0  9994
2 56146  43.0028 124.6406 0001214 267.5938  92.4774 15.27580279182305
STARLINK-5089           
1 56148U 23046BJ  26199.08013516  .00000433  00000+0  25242-4 0  9998
2 56148  43.0029  93.9137 0000946 263.8637  96.2107 15.27571676182564
PIESAT A                
1 56153U 23047A   26188.57334872  .00002741  00000+0  15334-3 0  9992
2 56153  97.5029  15.4212 0001885  96.4549 263.6898 15.14298420180881
PIESAT B                
1 56154U 23047B   26188.57335005  .00002820  00000+0  15766-3 0  9999
2 56154  97.5010  15.4186 0001475 106.2546 253.8848 15.14295360180880
