OBJECT_NAME,OBJECT_ID,EPOCH,MEAN_MOTION,ECCENTRICITY,INCLINATION,RA_OF_ASC_NODE,ARG_OF_PERICENTER,MEAN_ANOMALY,EPHEMERIS_TYPE,CLASSIFICATION_TYPE,NORAD_CAT_ID,ELEMENT_SET_NO,REV_AT_EPOCH,BSTAR,MEAN_MOTION_DOT,MEAN_MOTION_DDOT
STARLINK-6114,2023-046Z,2026-07-19T03:53:52.186848,15.27575981,.00016824,43.0035,139.4851,269.5869,90.4790,0,U,56116,999,18213,.39423214E-4,.823E-5,0
STARLINK-6107,2023-046AA,2026-07-19T03:34:14.132352,15.27582065,.00020434,43.0044,124.7110,267.8355,92.2263,0,U,56117,999,18230,-.5863879E-5,-.424E-5,0
STARLINK-6091,2023-046AC,2026-07-19T03:54:36.458208,15.27572299,.00009891,43.0024,124.8076,262.3259,97.7481,0,U,56119,999,18230,.4839929E-5,-.129E-5,0
STARLINK-6079,2023-046AD,2026-07-19T03:49:03.309312,15.27575913,.00008507,43.0021,124.7811,253.8321,106.2437,0,U,56120,999,18230,.10505093E-4,.27E-6,0
STARLINK-6092,2023-046AE,2026-07-19T05:17:39.845184,15.27570906,.00002744,43.0018,124.3807,225.7280,134.3550,0,U,56121,999,18231,-.1952314E-5,-.315E-5,0
STARLINK-6094,2023-046AF,2026-07-19T03:36:04.849632,15.27586261,.00016571,43.0039,135.9778,268.3353,91.7309,0,U,56122,999,18217,.32820518E-4,.641E-5,0
STARLINK-6115,2023-046AH,2026-07-19T02:40:48.027936,15.27573713,.00012932,43.0045,125.2842,266.4873,93.5831,0,U,56123,999,18229,.1713271E-4,.209E-5,0
STARLINK-6126,2023-046AJ,2026-07-19T03:37:57.180000,15.27572745,.00010169,43.0019,124.7269,249.3974,110.6768,0,U,56124,999,18230,.19087479E-4,.263E-5,0
STARLINK-6119,2023-046AK,2026-07-19T04:09:24.683904,15.27572599,.00013679,43.0024,124.8839,252.8411,107.2291,0,U,56125,999,18230,-.719069E-6,-.282E-5,0
STARLINK-6124,2023-046AL,2026-07-19T03:19:27.117120,15.27575658,.00018175,43.0027,124.6298,235.2695,124.7985,0,U,56126,999,18230,.13436486E-4,.107E-5,0
STARLINK-6104,2023-046AM,2026-07-18T19:16:51.238848,15.27573632,.0001672,43.0038,129.8228,280.3404,79.7259,0,U,56127,999,18221,.27389311E-4,.491E-5,0
STARLINK-6122,2023-046AN,2026-07-19T04:03:51.934176,15.27581944,.00008072,43.0024,124.8553,280.3938,79.6823,0,U,56128,999,18230,.25442067E-4,.438E-5,0
STARLINK-6121,2023-046AP,2026-07-18T22:18:21.060288,15.27575136,.00012968,43.0025,74.5860,263.2462,96.8242,0,U,56129,999,18286,-.8326331E-5,-.491E-5,0
STARLINK-6117,2023-046AQ,2026-07-19T04:49:54.302016,15.27577340,.00012839,43.0033,124.2391,267.6595,92.4110,0,U,56130,999,18231,.23168024E-4,.375E-5,0
STARLINK-6120,2023-046AR,2026-07-18T19:36:04.214880,15.27581966,.00008854,43.0011,126.5031,253.8583,106.2171,0,U,56131,999,18225,.1366528E-5,-.224E-5,0
STARLINK-6071,2023-046AS,2026-07-19T04:18:26.782560,15.27574926,.00015657,43.0044,124.0781,272.2380,87.8292,0,U,56132,999,18231,.13860388E-4,.119E-5,0
STARLINK-5566,2023-046AT,2026-07-18T19:00:56.512800,15.27567103,.00014291,43.0039,126.3285,282.2084,77.8607,0,U,56133,999,18225,-.15418572E-4,-.686E-5,0
STARLINK-5564,2023-046AU,2026-07-19T04:23:59.593632,15.27580385,.00014557,43.0043,124.1028,273.1705,86.8980,0,U,56134,999,18230,.22809048E-4,.365E-5,0
STARLINK-5489,2023-046AW,2026-07-19T04:33:14.666976,15.27579373,.00017056,43.0042,124.1509,275.5333,84.5324,0,U,56136,999,18231,.44000597E-4,.949E-5,0
STARLINK-5090,2023-046AX,2026-07-18T22:29:34.298592,15.27579163,.00013128,43.0038,125.6897,270.7340,89.3361,0,U,56137,999,18227,.44481916E-4,.962E-5,0
STARLINK-4774,2023-046AY,2026-07-19T05:15:48.524832,15.27575543,.00009481,43.0028,124.3659,256.6445,103.4302,0,U,56138,999,18231,.4310691E-5,-.143E-5,0
STARLINK-5375,2023-046BA,2026-07-19T04:01:59.700576,15.27582010,.00010061,43.0017,124.8415,307.0827,52.9933,0,U,56140,999,18230,.19453534E-4,.273E-5,0
STARLINK-5377,2023-046BB,2026-07-19T03:17:35.922048,15.27577146,.00011876,43.0026,124.6111,268.1814,91.8902,0,U,56141,999,18230,.21549344E-4,.331E-5,0
STARLINK-5376,2023-046BC,2026-07-18T04:47:57.146208,15.27576291,.00013543,43.0033,129.6240,277.9042,82.1656,0,U,56142,999,18216,.2378898E-4,.392E-5,0
STARLINK-5016,2023-046BD,2026-07-19T05:17:31.028064,15.18348846,.00032681,42.9976,136.3153,168.3533,191.7391,0,U,56143,999,18217,.68359077E-3,.14093E-3,0
STARLINK-5374,2023-046BE,2026-07-18T05:08:17.502144,15.27703858,.00024129,43.0028,129.7205,263.4423,96.6154,0,U,56144,999,18216,-.87514483E-3,-.24359E-3,0
STARLINK-5111,2023-046BG,2026-07-19T03:23:08.865312,15.27580279,.00012146,43.0028,124.6406,267.5938,92.4774,0,U,56146,999,18230,-.16245407E-4,-.709E-5,0
STARLINK-5089,2023-046BJ,2026-07-18T01:55:23.677824,15.27571676,.00009463,43.0029,93.9137,263.8637,96.2107,0,U,56148,999,18256,.25242007E-4,.433E-5,0
PIESAT A,2023-047A,2026-07-07T13:45:37.329408,15.14298420,.0001885,97.5029,15.4212,96.4549,263.6898,0,U,56153,999,18088,.15334E-3,.2741E-4,0
PIESAT B,2023-047B,2026-07-07T13:45:37.444320,15.14295360,.0001475,97.5010,15.4186,106.2546,253.8848,0,U,56154,999,18088,.15766E-3,.282E-4,0
